[{"OBJECT_NAME":"IRIDIUM 115","OBJECT_ID":"2017-039D","EPOCH":"2026-03-09T21:44:50.536608","MEAN_MOTION":14.43281411,"ECCENTRICITY":0.00018282,"INCLINATION":86.4554,"RA_OF_ASC_NODE":3.5706,"ARG_OF_PERICENTER":89.0887,"MEAN_ANOMALY":271.0524,"EPHEMERIS_TYPE":0,"CLASSIFICATION_TYPE":"U","NORAD_CAT_ID":42806,"ELEMENT_SET_NO":999,"REV_AT_EPOCH":45994,"BSTAR":0.00015631105,"MEAN_MOTION_DOT":5.46e-6,"MEAN_MOTION_DDOT":0},{"OBJECT_NAME":"COSMOS 252 DEB","OBJECT_ID":"1968-097AX","EPOCH":"2026-03-09T10:11:40.026912","MEAN_MOTION":12.78973585,"ECCENTRICITY":0.07856296,"INCLINATION":62.2519,"RA_OF_ASC_NODE":173.8596,"ARG_OF_PERICENTER":50.2674,"MEAN_ANOMALY":316.4901,"EPHEMERIS_TYPE":0,"CLASSIFICATION_TYPE":"U","NORAD_CAT_ID":3785,"ELEMENT_SET_NO":999,"REV_AT_EPOCH":54358,"BSTAR":0.00013336395,"MEAN_MOTION_DOT":2.9e-7,"MEAN_MOTION_DDOT":0}]
